NORAD_CAT_ID,OBJECT_NAME,OBJECT_TYPE,EPOCH,MEAN_MOTION,ECCENTRICITY,INCLINATION,RA_OF_ASC_NODE,ARG_OF_PERICENTER,MEAN_ANOMALY,BSTAR,MEAN_MOTION_DOT,MEAN_MOTION_DDOT,TLE_LINE0,TLE_LINE1,TLE_LINE2,SEMIMAJOR_AXIS,PERIOD,APOGEE,PERIGEE,DECAYED
51852.0,STARLINK-3542,PAYLOAD,2022-11-04 12:26:15,15.08836022,0.0001606,53.2166,101.1684,57.5137,302.601,4.1823e-05,3.78e-06,0.0,0 STARLINK-3542,1 51852U 22022A   22308.51822976  .00000378  00000-0  41823-4 0  9994,2 51852  53.2166 101.1684 0001606  57.5137 302.6010 15.08836022 37409,6917.893,95.438,540.869,538.6469999999998,0.0
51852.0,STARLINK-3542,PAYLOAD,2022-11-04 20:23:10,15.08835944,0.0001599,53.2166,99.6814,57.5322,302.5824,7.4733e-05,9.01e-06,0.0,0 STARLINK-3542,1 51852U 22022A   22308.84942921  .00000901  00000-0  74733-4 0  9991,2 51852  53.2166  99.6814 0001599  57.5322 302.5824 15.08835944 37451,6917.893,95.438,540.864,538.6519999999998,0.0
51852.0,STARLINK-3542,PAYLOAD,2022-11-05 12:17:02,15.08833436,0.0001264999999999,53.2172,96.7063,61.5617,298.5503,-9.1766e-05,-1.748e-05,0.0,0 STARLINK-3542,1 51852U 22022A   22309.51183428 -.00001748  00000-0 -91766-4 0  9992,2 51852  53.2172  96.7063 0001265  61.5617 298.5503 15.08833436 37557,6917.9,95.438,540.641,538.89,0.0
51852.0,STARLINK-3542,PAYLOAD,2022-11-06 02:35:30,15.08829955,0.0001476,53.2179,94.0326,43.8785,316.2324,-4.4417e-05,-9.95e-06,0.0,0 STARLINK-3542,1 51852U 22022A   22310.10799741 -.00000995  00000-0 -44417-4 0  9994,2 51852  53.2179  94.0326 0001476  43.8785 316.2324 15.08829955 38898,6917.911,95.438,540.797,538.755,0.0
51852.0,STARLINK-3542,PAYLOAD,2022-11-06 08:57:03,15.08828924,0.0001389,53.2179,92.842,50.2662,309.8452,-5.5279e-05,-1.167e-05,0.0,0 STARLINK-3542,1 51852U 22022A   22310.37296046 -.00001167  00000-0 -55279-4 0  9993,2 51852  53.2179  92.8420 0001389  50.2662 309.8452 15.08828924 37689,6917.9140000000025,95.438,540.74,538.818,0.0
51852.0,STARLINK-3542,PAYLOAD,2022-11-06 12:07:49,15.08834035,0.0001591,53.2171,92.2475,56.9607,303.1538,5.0354e-05,5.13e-06,0.0,0 STARLINK-3542,1 51852U 22022A   22310.50543496  .00000513  00000-0  50354-4 0  9993,2 51852  53.2171  92.2475 0001591  56.9607 303.1538 15.08834035 38955,6917.899,95.438,540.864,538.663,0.0
51852.0,STARLINK-3542,PAYLOAD,2022-11-07 04:01:39,15.0886658,0.0001515,53.2173,89.2744,49.2184,310.8939,-0.00026201,-4.459e-05,0.0,0 STARLINK-3542,1 51852U 22022A   22311.16782372 -.00004459  00000-0 -26201-3 0  9992,2 51852  53.2173  89.2744 0001515  49.2184 310.8939 15.08866580 39055,6917.799,95.436,540.712,538.616,0.0
51852.0,STARLINK-3542,PAYLOAD,2022-11-07 11:58:36,15.08831116,0.00016,53.2173,87.7872,55.0368,305.0774,0.00011549,1.55e-05,0.0,0 STARLINK-3542,1 51852U 22022A   22311.49903794  .00001550  00000-0  11549-3 0  9997,2 51852  53.2173  87.7872 0001600  55.0368 305.0774 15.08831116 39100,6917.908,95.438,540.879,538.6659999999998,0.0
51852.0,STARLINK-3542,PAYLOAD,2022-11-08 07:03:13,15.08848458,0.0001696999999999,53.2171,84.219,53.8871,306.2279,0.00014932,2.09e-05,0.0,0 STARLINK-3542,1 51852U 22022A   22312.29390659  .00002090  00000-0  14932-3 0  9995,2 51852  53.2171  84.2190 0001697  53.8871 306.2279 15.08848458 39227,6917.855,95.437,540.893,538.5459999999998,0.0
51852.0,STARLINK-3542,PAYLOAD,2022-11-08 08:38:36,15.08848821,0.000172,53.2169,83.9214,55.8861,304.2294,0.00015356,2.157e-05,0.0,0 STARLINK-3542,1 51852U 22022A   22312.36014590  .00002157  00000-0  15356-3 0  9995,2 51852  53.2169  83.9214 0001720  55.8861 304.2294 15.08848821 37985,6917.853,95.437,540.908,538.529,0.0
51852.0,STARLINK-3542,PAYLOAD,2022-11-08 15:00:08,15.08856362,0.0001538,53.2171,82.7318,61.2243,298.8904,0.00020381,2.959e-05,0.0,0 STARLINK-3542,1 51852U 22022A   22312.62509818  .00002959  00000-0  20381-3 0  9990,2 51852  53.2171  82.7318 0001538  61.2243 298.8904 15.08856362 39271,6917.83,95.437,540.759,538.631,0.0
51852.0,STARLINK-3542,PAYLOAD,2022-11-09 14:50:56,15.08830265,0.0001857,53.2157,78.2706,55.409,304.7077,-0.00020063,-3.479e-05,0.0,0 STARLINK-3542,1 51852U 22022A   22313.61870647 -.00003479  00000-0 -20063-3 0  9998,2 51852  53.2157  78.2706 0001857  55.4090 304.7077 15.08830265 38175,6917.91,95.438,541.06,538.49,0.0
51852.0,STARLINK-3542,PAYLOAD,2022-11-10 01:58:39,15.08812092,0.0001496999999999,53.2168,76.1898,50.7475,309.3649,-0.00048311,-7.963e-05,0.0,0 STARLINK-3542,1 51852U 22022A   22314.08239998 -.00007963  00000-0 -48311-3 0  9996,2 51852  53.2168  76.1898 0001497  50.7475 309.3649 15.08812092 39491,6917.965999999999,95.439,540.866,538.795,0.0
51852.0,STARLINK-3542,PAYLOAD,2022-11-10 13:06:22,15.08817412,0.0001795,53.2178,74.1103,45.7406,314.3733,-9.8734e-05,-1.858e-05,0.0,0 STARLINK-3542,1 51852U 22022A   22314.54608818 -.00001858  00000-0 -98734-4 0  9990,2 51852  53.2178  74.1103 0001795  45.7406 314.3733 15.08817412 38319,6917.949000000001,95.439,541.056,538.573,0.0
51852.0,STARLINK-3542,PAYLOAD,2022-11-10 14:41:44,15.08815104,0.0001738,53.2172,73.8121,47.0105,313.1032,-0.00011525,-2.121e-05,0.0,0 STARLINK-3542,1 51852U 22022A   22314.61232481 -.00002121  00000-0 -11525-3 0  9993,2 51852  53.2172  73.8121 0001738  47.0105 313.1032 15.08815104 39571,6917.956,95.439,541.024,538.619,0.0
51852.0,STARLINK-3542,PAYLOAD,2022-11-11 05:00:13,15.08824764,0.0001809,53.2175,71.1367,45.5169,314.597,0.00011315,1.512e-05,0.0,0 STARLINK-3542,1 51852U 22022A   22315.20848987  .00001512  00000-0  11315-3 0  9991,2 51852  53.2175  71.1367 0001809  45.5169 314.5970 15.08824764 39667,6917.927,95.439,541.043,538.5409999999998,0.0
51852.0,STARLINK-3542,PAYLOAD,2022-11-11 12:57:09,15.08838099,0.000185,53.2175,69.6497,43.9065,316.2074,0.00098561,0.00015432,0.0,0 STARLINK-3542,1 51852U 22022A   22315.53969722  .00015432  00000-0  98561-3 0  9992,2 51852  53.2175  69.6497 0001850  43.9065 316.2074 15.08838099 38463,6917.886,95.438,541.031,538.471,0.0
51852.0,STARLINK-3542,PAYLOAD,2022-11-11 14:32:32,15.08845712,0.0001876,53.2173,69.3519,44.1526,315.9616,0.0011686,0.00018362,0.0,0 STARLINK-3542,1 51852U 22022A   22315.60593662  .00018362  00000-0  11686-2 0  9993,2 51852  53.2173  69.3519 0001876  44.1526 315.9616 15.08845712 39724,6917.863,95.437,541.026,538.43,0.0
51852.0,STARLINK-3542,PAYLOAD,2022-11-12 12:47:55,15.0886697,0.0001913,53.2173,65.1896,42.542,317.572,0.00066144,0.00010262,0.0,0 STARLINK-3542,1 51852U 22022A   22316.53328414  .00010262  00000-0  66144-3 0  9998,2 51852  53.2173  65.1896 0001913  42.5420 317.5720 15.08866970 38613,6917.7980000000025,95.436,540.986,538.34,0.0
51852.0,STARLINK-3542,PAYLOAD,2022-11-13 03:06:23,15.08863644,0.0001825,53.2172,62.5126,45.1485,314.9655,0.0003786,5.746e-05,0.0,0 STARLINK-3542,1 51852U 22022A   22317.12943576  .00005746  00000-0  37860-3 0  9990,2 51852  53.2172  62.5126 0001825  45.1485 314.9655 15.08863644 39952,6917.808000000001,95.436,540.936,538.411,0.0
51852.0,STARLINK-3542,PAYLOAD,2022-11-13 11:03:18,15.08848035,0.0001848,53.2172,61.026,46.2568,313.8576,-0.00010297,-1.927e-05,0.0,0 STARLINK-3542,1 51852U 22022A   22317.46063527 -.00001927  00000-0 -10297-3 0  9990,2 51852  53.2172  61.0260 0001848  46.2568 313.8576 15.08848035 40009,6917.856,95.437,540.999,538.442,0.0
51852.0,STARLINK-3542,PAYLOAD,2022-11-13 12:38:42,15.08846865,0.000181,53.2174,60.7285,47.0752,313.0392,-2.9077e-05,-7.51e-06,0.0,0 STARLINK-3542,1 51852U 22022A   22317.52687554 -.00000751  00000-0 -29077-4 0  9990,2 51852  53.2174  60.7285 0001810  47.0752 313.0392 15.08846865 38764,6917.859,95.437,540.977,538.472,0.0
51852.0,STARLINK-3542,PAYLOAD,2022-11-14 06:07:57,15.0882538,0.0001907,53.2169,57.4579,47.0763,313.0389,7.1257e-05,8.46e-06,0.0,0 STARLINK-3542,1 51852U 22022A   22318.25552749  .00000846  00000-0  71257-4 0  9998,2 51852  53.2169  57.4579 0001907  47.0763 313.0389 15.08825380 40124,6917.925,95.438,541.109,538.471,0.0
51852.0,STARLINK-3542,PAYLOAD,2022-11-14 10:54:07,15.08828922,0.0001956,53.2171,56.5663,43.2241,316.8905,0.00011882,1.603e-05,0.0,0 STARLINK-3542,1 51852U 22022A   22318.45424857  .00001603  00000-0  11882-3 0  9997,2 51852  53.2171  56.5663 0001956  43.2241 316.8905 15.08828922 38907,6917.9140000000025,95.438,541.132,538.4259999999998,0.0
51852.0,STARLINK-3542,PAYLOAD,2022-11-14 15:40:16,15.08839564,0.0001904,53.2173,55.6734,45.1717,314.9429,-2.3596e-05,-6.64e-06,0.0,0 STARLINK-3542,1 51852U 22022A   22318.65296643 -.00000664  00000-0 -23596-4 0  9993,2 51852  53.2173  55.6734 0001904  45.1717 314.9429 15.08839564 40187,6917.882,95.438,541.064,538.43,0.0
51852.0,STARLINK-3542,PAYLOAD,2022-11-15 12:20:17,15.08839654,0.0001944,53.2175,51.8075,44.7382,315.3767,0.00018024,2.582e-05,0.0,0 STARLINK-3542,1 51852U 22022A   22319.51408776  .00002582  00000-0  18024-3 0  9999,2 51852  53.2175  51.8075 0001944  44.7382 315.3767 15.08839654 39067,6917.880999999999,95.438,541.091,538.4019999999998,0.0
51852.0,STARLINK-3542,PAYLOAD,2022-11-15 13:55:40,15.08838392,0.0002021,53.2173,51.5113,44.5368,315.5786,0.00021153,3.08e-05,0.0,0 STARLINK-3542,1 51852U 22022A   22319.58032959  .00003080  00000-0  21153-3 0  9993,2 51852  53.2173  51.5113 0002021  44.5368 315.5786 15.08838392 39076,6917.885,95.438,541.148,538.352,0.0
51852.0,STARLINK-3542,PAYLOAD,2022-11-16 01:03:22,15.08840703,0.0001788,53.2173,49.429,45.2164,314.8974,0.00012292,1.669e-05,0.0,0 STARLINK-3542,1 51852U 22022A   22320.04400869  .00001669  00000-0  12292-3 0  9990,2 51852  53.2173  49.4290 0001788  45.2164 314.8974 15.08840703 40396,6917.878000000002,95.438,540.98,538.506,0.0
51852.0,STARLINK-3542,PAYLOAD,2022-11-16 12:11:04,15.08841318,0.0001664,53.2173,47.3472,46.6741,313.4389,0.00010597,1.399e-05,0.0,0 STARLINK-3542,1 51852U 22022A   22320.50768869  .00001399  00000-0  10597-3 0  9994,2 51852  53.2173  47.3472 0001664  46.6741 313.4389 15.08841318 39211,6917.876,95.437,540.8919999999998,538.59,0.0
